0 SL-12 DEB
1 26813U 89001P   13281.67643653  .00026980  00000-0  29067-1 0  6709
2 26813 065.3251 224.7781 2703323 336.3441 043.2674 09.33216333411228
0 SL-12 DEB
1 26813U 89001P   13283.59621037  .00034646  00000-0  38547-1 0  6716
2 26813 065.3258 222.5077 2697655 336.0907 013.4883 09.33364485411406
0 SL-12 DEB
1 26813U 89001P   13283.71619155  .00043701  00000-0  47067-1 0  6717
2 26813 065.3215 222.3538 2702081 336.0690 056.6163 09.33405490411411
0 SL-12 DEB
1 26813U 89001P   13284.67758394  .00042469  00000-0  45699-1 0  6722
2 26813 065.3202 221.2135 2701790 335.9351 047.2236 09.33485952411504
0 SL-12 DEB
1 26813U 89001P   13285.64026582  .00033413  00000-0  35990-1 0  6730
2 26813 065.3225 220.0728 2701398 335.8049 042.4313 09.33551934411597
0 SL-12 DEB
1 26813U 89001P   13286.81658301  .00043786  00000-0  47163-1 0  6740
2 26813 065.3191 218.6700 2700517 335.6610 035.9485 09.33686051411705
0 SL-12 DEB
1 26813U 89001P   13287.67804537  .00055293  00000-0  59848-1 0  6759
2 26813 065.3168 217.6440 2699442 335.5546 051.4954 09.33721635411780
0 SL-12 DEB
1 26813U 89001P   13288.63988744  .00051663  00000-0  56414-1 0  6763
2 26813 065.3219 216.5072 2697542 335.4442 044.7745 09.33832511411878
0 SL-12 DEB
1 26813U 89001P   13289.71234402  .00069994  00000-0  76922-1 0  6771
2 26813 065.3278 215.2383 2695854 335.3191 050.3192 09.33922021411974
0 SL-12 DEB
1 26813U 89001P   13290.67700865  .00061957  00000-0  68761-1 0  6783
2 26813 065.3271 214.0893 2693832 335.2219 053.8020 09.34035232412063
0 SL-12 DEB
1 26813U 89001P   13291.63896128  .00045361  00000-0  50535-1 0  6790
2 26813 065.3334 212.9586 2692938 335.1023 048.5334 09.34129846412151
0 SL-12 DEB
1 26813U 89001P   13292.81266505  .00052926  00000-0  59686-1 0  6804
2 26813 065.3291 211.5569 2690282 334.9762 035.8141 09.34255813412267
0 SL-12 DEB
1 26813U 89001P   13293.77539336  .00058085  00000-0  65885-1 0  6816
2 26813 065.3255 210.4100 2688772 334.8730 033.9459 09.34356957412353
0 SL-12 DEB
1 26813U 89001P   13295.06615641  .00062930  00000-0  72009-1 0  6825
2 26813 065.3194 208.8710 2686641 334.7268 055.9636 09.34488055412470
